[{"OBJECT_NAME":"STARLINK-33911","OBJECT_ID":"2025-091C","EPOCH":"2026-03-08T23:10:17.967936","MEAN_MOTION":15.27584249,"ECCENTRICITY":0.00015939,"INCLINATION":43.0021,"RA_OF_ASC_NODE":49.4639,"ARG_OF_PERICENTER":251.2035,"MEAN_ANOMALY":108.8644,"EPHEMERIS_TYPE":0,"CLASSIFICATION_TYPE":"U","NORAD_CAT_ID":63777,"ELEMENT_SET_NO":999,"REV_AT_EPOCH":4887,"BSTAR":0.0012813119,"MEAN_MOTION_DOT":0.0003517,"MEAN_MOTION_DDOT":0},{"OBJECT_NAME":"ARIANE 40 R\/B","OBJECT_ID":"1999-064C","EPOCH":"2026-03-09T18:24:37.025280","MEAN_MOTION":15.31364882,"ECCENTRICITY":0.00050095,"INCLINATION":98.1631,"RA_OF_ASC_NODE":150.8872,"ARG_OF_PERICENTER":91.4057,"MEAN_ANOMALY":268.7755,"EPHEMERIS_TYPE":0,"CLASSIFICATION_TYPE":"U","NORAD_CAT_ID":25979,"ELEMENT_SET_NO":999,"REV_AT_EPOCH":42869,"BSTAR":0.00066758353,"MEAN_MOTION_DOT":0.00020173,"MEAN_MOTION_DDOT":0}]
